{
  "type": "FeatureCollection",
  "features": [
    {
      "type": "Feature",
      "properties": {
        "norad_id": 38867,
        "name": "INTELSAT 23 (IS-23)",
        "group": "intelsat",
        "lat": 0.02337177128444406,
        "lon": -157.15000593343734,
        "alt_km": 35781.91682423149,
        "timestamp": "2025-12-14T11:29:49.724494+00:00",
        "meta_object_name": "INTELSAT 23 (IS-23)",
        "meta_object_id": "2012-057A",
        "meta_epoch": "2025-12-12T20:04:33.254400",
        "meta_mean_motion": 1.00272659,
        "meta_eccentricity": 0.0001042,
        "meta_inclination": 0.0448,
        "meta_ra_of_asc_node": 97.1317,
        "meta_arg_of_pericenter": 126.8115,
        "meta_mean_anomaly": 105.9792,
        "meta_ephemeris_type": 0,
        "meta_classification_type": "U",
        "meta_norad_cat_id": 38867,
        "meta_element_set_no": 999,
        "meta_rev_at_epoch": 4808,
        "meta_bstar": 0,
        "meta_mean_motion_dot": -2.72e-06,
        "meta_mean_motion_ddot": 0,
        "tle_line1": "1 38867U 12057A   25346.83649600 -.00000272  00000+0  00000+0 0  9993",
        "tle_line2": "2 38867   0.0448  97.1317 0001042 126.8115 105.9792  1.00272659 48084"
      },
      "geometry": {
        "type": "Point",
        "coordinates": [
          -157.15000593343734,
          0.02337177128444406
        ]
      }
    },
    {
      "type": "Feature",
      "properties": {
        "norad_id": 39360,
        "name": "FM-6",
        "group": "intelsat",
        "lat": 0.00854922049425321,
        "lon": 139.68462902837123,
        "alt_km": 35776.20912493095,
        "timestamp": "2025-12-14T11:29:49.724506+00:00",
        "meta_object_name": "FM-6",
        "meta_object_id": "2013-058A",
        "meta_epoch": "2025-12-13T07:28:38.758944",
        "meta_mean_motion": 1.00272466,
        "meta_eccentricity": 0.00029225,
        "meta_inclination": 0.0096,
        "meta_ra_of_asc_node": 62.5773,
        "meta_arg_of_pericenter": 115.2361,
        "meta_mean_anomaly": 260.4514,
        "meta_ephemeris_type": 0,
        "meta_classification_type": "U",
        "meta_norad_cat_id": 39360,
        "meta_element_set_no": 999,
        "meta_rev_at_epoch": 4420,
        "meta_bstar": 0,
        "meta_mean_motion_dot": -3e-08,
        "meta_mean_motion_ddot": 0,
        "tle_line1": "1 39360U 13058A   25347.31155971 -.00000003  00000+0  00000+0 0  9993",
        "tle_line2": "2 39360   0.0096  62.5773 0002922 115.2361 260.4514  1.00272466 44202"
      },
      "geometry": {
        "type": "Point",
        "coordinates": [
          139.68462902837123,
          0.00854922049425321
        ]
      }
    },
    {
      "type": "Feature",
      "properties": {
        "norad_id": 40271,
        "name": "INTELSAT 30 (IS-30)",
        "group": "intelsat",
        "lat": 0.014668318077493966,
        "lon": 160.8025428396448,
        "alt_km": 35785.23723281987,
        "timestamp": "2025-12-14T11:29:49.724518+00:00",
        "meta_object_name": "INTELSAT 30 (IS-30)",
        "meta_object_id": "2014-062A",
        "meta_epoch": "2025-12-12T08:55:38.613216",
        "meta_mean_motion": 1.00272537,
        "meta_eccentricity": 0.00012624,
        "meta_inclination": 0.0176,
        "meta_ra_of_asc_node": 31.1392,
        "meta_arg_of_pericenter": 47.2418,
        "meta_mean_anomaly": 41.7881,
        "meta_ephemeris_type": 0,
        "meta_classification_type": "U",
        "meta_norad_cat_id": 40271,
        "meta_element_set_no": 999,
        "meta_rev_at_epoch": 491,
        "meta_bstar": 0,
        "meta_mean_motion_dot": -1.41e-06,
        "meta_mean_motion_ddot": 0,
        "tle_line1": "1 40271U 14062A   25346.37197469 -.00000141  00000+0  00000+0 0  9998",
        "tle_line2": "2 40271   0.0176  31.1392 0001262  47.2418  41.7881  1.00272537  4916"
      },
      "geometry": {
        "type": "Point",
        "coordinates": [
          160.8025428396448,
          0.014668318077493966
        ]
      }
    },
    {
      "type": "Feature",
      "properties": {
        "norad_id": 40333,
        "name": "DIRECTV 14",
        "group": "intelsat",
        "lat": -0.004254443753750179,
        "lon": 156.61541064549525,
        "alt_km": 35785.407012519645,
        "timestamp": "2025-12-14T11:29:49.724530+00:00",
        "meta_object_name": "DIRECTV 14",
        "meta_object_id": "2014-078B",
        "meta_epoch": "2025-12-13T14:41:21.139008",
        "meta_mean_motion": 1.00270152,
        "meta_eccentricity": 2.75e-05,
        "meta_inclination": 0.0197,
        "meta_ra_of_asc_node": 329.2076,
        "meta_arg_of_pericenter": 185.394,
        "meta_mean_anomaly": 49.0546,
        "meta_ephemeris_type": 0,
        "meta_classification_type": "U",
        "meta_norad_cat_id": 40333,
        "meta_element_set_no": 999,
        "meta_rev_at_epoch": 4018,
        "meta_bstar": 0,
        "meta_mean_motion_dot": -1.1e-06,
        "meta_mean_motion_ddot": 0,
        "tle_line1": "1 40333U 14078B   25347.61205022 -.00000110  00000+0  00000+0 0  9993",
        "tle_line2": "2 40333   0.0197 329.2076 0000275 185.3940  49.0546  1.00270152 40184"
      },
      "geometry": {
        "type": "Point",
        "coordinates": [
          156.61541064549525,
          -0.004254443753750179
        ]
      }
    },
    {
      "type": "Feature",
      "properties": {
        "norad_id": 40663,
        "name": "DIRECTV 15",
        "group": "intelsat",
        "lat": 0.03141511891265097,
        "lon": 152.97608646606963,
        "alt_km": 35785.83508874152,
        "timestamp": "2025-12-14T11:29:49.724541+00:00",
        "meta_object_name": "DIRECTV 15",
        "meta_object_id": "2015-026A",
        "meta_epoch": "2025-12-13T14:40:21.235296",
        "meta_mean_motion": 1.002702,
        "meta_eccentricity": 2.56e-05,
        "meta_inclination": 0.0386,
        "meta_ra_of_asc_node": 85.362,
        "meta_arg_of_pericenter": 117.0868,
        "meta_mean_anomaly": 357.3198,
        "meta_ephemeris_type": 0,
        "meta_classification_type": "U",
        "meta_norad_cat_id": 40663,
        "meta_element_set_no": 999,
        "meta_rev_at_epoch": 3860,
        "meta_bstar": 0,
        "meta_mean_motion_dot": -8.7e-07,
        "meta_mean_motion_ddot": 0,
        "tle_line1": "1 40663U 15026A   25347.61135689 -.00000087  00000+0  00000+0 0  9997",
        "tle_line2": "2 40663   0.0386  85.3620 0000256 117.0868 357.3198  1.00270200 38601"
      },
      "geometry": {
        "type": "Point",
        "coordinates": [
          152.97608646606963,
          0.03141511891265097
        ]
      }
    },
    {
      "type": "Feature",
      "properties": {
        "norad_id": 40664,
        "name": "SKY MEXICO-1",
        "group": "intelsat",
        "lat": 0.025572755765394577,
        "lon": 177.05402611641713,
        "alt_km": 35788.155511120676,
        "timestamp": "2025-12-14T11:29:49.724552+00:00",
        "meta_object_name": "SKY MEXICO-1",
        "meta_object_id": "2015-026B",
        "meta_epoch": "2025-12-13T13:04:30.414144",
        "meta_mean_motion": 1.0027221,
        "meta_eccentricity": 0.00025087,
        "meta_inclination": 0.0386,
        "meta_ra_of_asc_node": 80.3811,
        "meta_arg_of_pericenter": 198.3538,
        "meta_mean_anomaly": 281.1043,
        "meta_ephemeris_type": 0,
        "meta_classification_type": "U",
        "meta_norad_cat_id": 40664,
        "meta_element_set_no": 999,
        "meta_rev_at_epoch": 3859,
        "meta_bstar": 0,
        "meta_mean_motion_dot": -2.2e-06,
        "meta_mean_motion_ddot": 0,
        "tle_line1": "1 40664U 15026B   25347.54479646 -.00000220  00000+0  00000+0 0  9993",
        "tle_line2": "2 40664   0.0386  80.3811 0002508 198.3538 281.1043  1.00272210 38591"
      },
      "geometry": {
        "type": "Point",
        "coordinates": [
          177.05402611641713,
          0.025572755765394577
        ]
      }
    },
    {
      "type": "Feature",
      "properties": {
        "norad_id": 40874,
        "name": "INTELSAT 34 (IS-34)",
        "group": "intelsat",
        "lat": -0.02511613642633873,
        "lon": -159.657867151599,
        "alt_km": 35784.11373742271,
        "timestamp": "2025-12-14T11:29:49.724564+00:00",
        "meta_object_name": "INTELSAT 34 (IS-34)",
        "meta_object_id": "2015-039A",
        "meta_epoch": "2025-12-12T13:12:57.677184",
        "meta_mean_motion": 1.00271609,
        "meta_eccentricity": 6.184e-05,
        "meta_inclination": 0.0135,
        "meta_ra_of_asc_node": 325.751,
        "meta_arg_of_pericenter": 204.0245,
        "meta_mean_anomaly": 54.4583,
        "meta_ephemeris_type": 0,
        "meta_classification_type": "U",
        "meta_norad_cat_id": 40874,
        "meta_element_set_no": 999,
        "meta_rev_at_epoch": 3775,
        "meta_bstar": 0,
        "meta_mean_motion_dot": -2.74e-06,
        "meta_mean_motion_ddot": 0,
        "tle_line1": "1 40874U 15039A   25346.55066756 -.00000274  00000+0  00000+0 0  9993",
        "tle_line2": "2 40874   0.0135 325.7510 0000618 204.0245  54.4583  1.00271609 37756"
      },
      "geometry": {
        "type": "Point",
        "coordinates": [
          -159.657867151599,
          -0.02511613642633873
        ]
      }
    }
  ]
}